STARLINK-2065_new
1 17672C 21012BE  21326.13522664  .00009813  00000-0  65732-3 0  3266
2 17672  53.0519 243.1262 0002979  57.7017  40.8047 15.06394939    18
STARLINK-2065_old
1 27672C 21012BE  21325.14754700  .00009075  00000-0  60813-3 0  3258
2 27672  53.0517 247.5600 0002880  55.9345  83.4072 15.06380795    11
